CZ-3B R/B               
1 66176U 25242B   25299.27071686  .00018792  00000+0  37741-3 0  9996
2 66176  97.4555  11.2728 0106022  42.2605 318.6750 15.40726206    29
2025-242C               
1 66177U 25242C   25299.40367106  .00004293  00000+0  21434-3 0  9990
2 66177  97.6110  12.4552 0044551 134.5252 225.9635 15.17165482    38
